STARLINK-30135          
1 56842U 23079V   23295.30164068  .00003829  00000+0  29825-3 0  9995
2 56842  43.0023 151.4700 0001307 288.1035  71.9665 15.02548528 22104
STARLINK-30137          
1 56843U 23079W   23295.88365760  .00001295  00000+0  11327-3 0  9994
2 56843  43.0020 148.0981 0001414 280.5113  79.5570 15.01715162 21867
STARLINK-30136          
1 56844U 23079X   23295.31495925 -.00011918  00000+0 -86880-3 0  9991
2 56844  43.0008 151.5626 0001107 275.5901  84.4815 15.02531759 22101
STARLINK-6206           
1 56876U 23083A   23295.80970503  .00000472  00000+0  50016-4 0  9999
2 56876  43.0027 123.4244 0001204 284.3036  75.7672 15.02531960 20168
STARLINK-6209           
1 56877U 23083B   23295.53602324 -.00001095  00000+0 -66005-4 0  9992
2 56877  43.0022 124.8107 0001129 274.6628  85.4085 15.02533587 20121
STARLINK-6182           
1 56878U 23083C   23295.80859425  .00000348  00000+0  40812-4 0  9995
2 56878  43.0017 123.4156 0001267 265.2318  94.8380 15.02531519 20169
STARLINK-5707           
1 56879U 23083D   23295.53935197 -.00000951  00000+0 -55316-4 0  9994
2 56879  43.0022 124.8358 0001373 268.6364  91.4321 15.02531194 20124
STARLINK-6177           
1 56880U 23083E   23295.52936550  .00000778  00000+0  72668-4 0  9993
2 56880  43.0025 124.7596 0001537 269.8689  90.1978 15.02537589 20125
STARLINK-5853           
1 56881U 23083F   23295.53269457  .00002519  00000+0  20149-3 0  9991
2 56881  43.0005 124.7868 0000820 302.4639  57.6124 15.02536620 20125
STARLINK-6175           
1 56882U 23083G   23295.52381398  .00001149  00000+0  10013-3 0  9997
2 56882  43.0014 124.7175 0000495 269.0362  91.0424 15.02530839 20127
STARLINK-6171           
1 56883U 23083H   23295.53380084 -.00000165  00000+0  28788-5 0  9998
2 56883  43.0012 124.7951 0001438 266.0026  94.0651 15.02535514 20120
STARLINK-5515           
1 56884U 23083J   23295.71658661 -.00000145  00000+0  43221-5 0  9995
2 56884  43.0023 123.5830 0001129 270.6036  89.4677 15.02531326 20151
STARLINK-5095           
1 56885U 23083K   23295.52603449  .00000757  00000+0  71141-4 0  9998
2 56885  43.0022 124.7333 0001201 282.8106  77.2602 15.02531284 20129
STARLINK-5496           
1 56886U 23083L   23295.58252386  .00000635  00000+0  62110-4 0  9996
2 56886  43.0022 124.2965 0001127 270.1472  89.9241 15.02531301 20937
STARLINK-6180           
1 56887U 23083M   23295.52048365  .00001065  00000+0  93869-4 0  9994
2 56887  43.0024 124.6907 0001031 277.4924  82.5801 15.02537167 20124
STARLINK-6181           
1 56888U 23083N   23295.70216108  .00000703  00000+0  67113-4 0  9998
2 56888  43.0040 123.4759 0001518 276.4052  83.6618 15.02530150 20152
STARLINK-6169           
1 56889U 23083P   23295.57919522  .00001466  00000+0  12356-3 0  9999
2 56889  43.0025 124.2702 0001363 264.4147  95.6539 15.02530829 20139
STARLINK-5528           
1 56890U 23083Q   23295.76974646  .00001487  00000+0  12515-3 0  9990
2 56890  43.0026 123.1199 0001311 268.1406  91.9286 15.02535035 20167
STARLINK-6213           
1 56891U 23083R   23295.57586760 -.00000487  00000+0 -21004-4 0  9991
2 56891  43.0035 124.2445 0001246 265.6949  94.3751 15.02522135 20931
STARLINK-6219           
1 56892U 23083S   23295.56254217 -.00000503  00000+0 -22191-4 0  9997
2 56892  43.0022 124.1449 0000796 300.4150  59.6614 15.02532228 20938
STARLINK-6216           
1 56893U 23083T   23295.57253100 -.00002863  00000+0 -19693-3 0  9992
2 56893  43.0025 124.2200 0001496 262.5073  97.5599 15.02533122 21059
STARLINK-6144           
1 56894U 23083U   23295.56365244 -.00000374  00000+0 -12623-4 0  9997
2 56894  43.0022 124.1530 0001530 270.4070  89.6597 15.02532852 21055
STARLINK-6208           
1 56895U 23083V   23295.83178218 -.00002105  00000+0 -14086-3 0  9999
2 56895  43.0024 122.7249 0001382 286.3460  73.7231 15.02527268 20977
STARLINK-6202           
1 56896U 23083W   23295.22349294 -.00001251  00000+0 -77518-4 0  9998
2 56896  43.0025 125.9006 0001396 272.3738  87.6944 15.02534523 20992
STARLINK-6200           
1 56897U 23083X   23295.55921361  .00000715  00000+0  68011-4 0  9996
2 56897  43.0022 124.1196 0001379 266.0184  94.0501 15.02532575 21051
STARLINK-6205           
1 56898U 23083Y   23295.68218194 -.00000422  00000+0 -16186-4 0  9997
2 56898  43.0016 123.3219 0001046 262.4451  97.6273 15.02530372 20158
STARLINK-6203           
1 56899U 23083Z   23295.22016389 -.00001840  00000+0 -12118-3 0  9995
2 56899  43.0029 125.8749 0001234 279.1964  80.8739 15.02524657 20993
STARLINK-6207           
1 56900U 23083AA  23295.48645596  .00000040  00000+0  18043-4 0  9997
2 56900  43.0037 112.2959 0001378 271.8354  88.2330 15.02522189 21032
STARLINK-6185           
1 56901U 23083AB  23295.81291348 -.00000464  00000+0 -19305-4 0  9991
2 56901  43.0022 122.5830 0001274 270.0156  90.0540 15.02531188 20172
STARLINK-6195           
1 56902U 23083AC  23295.54960383  .00000066  00000+0  19955-4 0  9991
2 56902  43.0036 111.9103 0000927 270.8398  89.2338 15.02525709 20271
STARLINK-6192           
1 56903U 23083AD  23295.81624922 -.00000314  00000+0 -81577-5 0  9996
2 56903  43.0030 122.6065 0001047 268.5136  91.5587 15.02526189 20174
STARLINK-6193           
1 56904U 23083AE  23295.52629849 -.00002199  00000+0 -14782-3 0  9993
2 56904  43.0028 111.7337 0001193 275.5575  84.5131 15.02529000 21072
STARLINK-6183           
1 56905U 23083AF  23295.68810414  .00001042  00000+0  92225-4 0  9994
2 56905  43.0036 111.2302 0001140 270.9494  89.1218 15.02537952 20295
STARLINK-6098           
1 56906U 23083AG  23295.74015508  .00000476  00000+0  50353-4 0  9999
2 56906  43.0032 110.7601 0001241 266.4253  93.6447 15.02527979 20307
STARLINK-6110           
1 56907U 23083AH  23295.21165812 -.00000831  00000+0 -46472-4 0  9990
2 56907  43.0025 113.6752 0001109 274.6557  85.4159 15.02536147 21138
STARLINK-6186           
1 56908U 23083AJ  23295.53406282 -.00000303  00000+0 -73647-5 0  9994
2 56908  43.0033 111.7924 0001224 271.9180  88.1522 15.02529328 20279
STARLINK-5999           
1 56909U 23083AK  23295.54738246 -.00000378  00000+0 -12911-4 0  9992
2 56909  43.0047 111.8947 0001147 274.4813  85.5898 15.02526813 20279
STARLINK-6179           
1 56910U 23083AL  23295.79553120  .00000090  00000+0  21748-4 0  9994
2 56910  43.0032 110.3135 0001255 267.0329  93.0369 15.02533026 20314
STARLINK-6116           
1 56911U 23083AM  23295.80441178  .00001006  00000+0  89556-4 0  9995
2 56911  43.0033 110.3816 0001244 269.7443  90.3257 15.02534063 20314
STARLINK-5805           
1 56912U 23083AN  23295.52407523  .00000020  00000+0  16538-4 0  9996
2 56912  43.0033 111.7155 0001093 266.2453  93.8265 15.02526222 21070
STARLINK-5950           
1 56913U 23083AP  23295.53516984  .00000541  00000+0  55082-4 0  9995
2 56913  43.0018 111.8019 0001230 266.0702  94.0000 15.02535159 21071
STARLINK-5961           
1 56914U 23083AQ  23295.71684904 -.00000417  00000+0 -15815-4 0  9998
2 56914  43.0033 110.5811 0001270 265.1141  94.9556 15.02526759 20302
STARLINK-5965           
1 56915U 23083AR  23295.79775104  .00000134  00000+0  24961-4 0  9996
2 56915  43.0034 110.3304 0001265 268.9752  91.0946 15.02533310 20315
STARLINK-5973           
1 56916U 23083AS  23295.77666609 -.00000205  00000+0 -69484-7 0  9997
2 56916  43.0038 110.1682 0001167 275.3263  84.7446 15.02527222 20316
STARLINK-5971           
1 56917U 23083AT  23295.78664585  .00001821  00000+0  14983-3 0  9993
2 56917  43.0037 110.2451 0001041 282.4597  77.6129 15.02540530 20317
STARLINK-5951           
1 56918U 23083AU  23295.77555894 -.00000530  00000+0 -24203-4 0  9990
2 56918  43.0041 110.1594 0001111 281.9100  78.1618 15.02525071 20314
STARLINK-5966           
1 56919U 23083AV  23295.51519436  .00000094  00000+0  22021-4 0  9994
2 56919  43.0035 111.6462 0001006 275.3432  84.7295 15.02528678 21070
STARLINK-5960           
1 56920U 23083AW  23295.76894263 -.00005436  00000+0 -38818-3 0  9994
2 56920  43.0034 110.1097 0001213 278.3838  81.6867 15.02482160 20314
STARLINK-5958           
1 56921U 23083AX  23295.71129471 -.00001275  00000+0 -79322-4 0  9995
2 56921  43.0028 110.5379 0001241 270.5314  89.5386 15.02529104 20301
STARLINK-5937           
1 56922U 23083AY  23295.76335074 -.00000916  00000+0 -52754-4 0  9990
2 56922  43.0037 110.0675 0001044 270.8442  89.2281 15.02523617 20317
STARLINK-5952           
1 56923U 23083AZ  23295.77223340 -.00002339  00000+0 -15822-3 0  9999
2 56923  43.0043 110.1339 0001273 281.1553  78.9146 15.02515938 20317
STARLINK-5731           
1 56924U 23083BA  23295.55836404  .00000575  00000+0  57628-4 0  9996
2 56924  43.0039 111.1092 0001025 265.5836  94.4889 15.02526415 21191
STARLINK-5733           
1 56925U 23083BB  23295.76113096 -.00000081  00000+0  91084-5 0  9993
2 56925  43.0040 110.0503 0001166 273.0333  87.0375 15.02524109 20310
STARLINK-5746           
1 56926U 23083BC  23295.76667831 -.00001024  00000+0 -60774-4 0  9995
2 56926  43.0051 110.0923 0001192 273.7803  86.2903 15.02527794 20318
STARLINK-5808           
1 56927U 23083BD  23295.83334491  .00252848  00000+0  11124-2 0  9990
2 56927  42.9906  60.6311 0004880 323.6874 134.7598 15.83056034 20881
STARLINK-5847           
1 57048U 23088A   23295.87783903  .00001131  00000+0  98831-4 0  9999
2 57048  43.0013 148.7157 0001304 285.8128  74.2570 15.02528051 18779
STARLINK-5850           
1 57049U 23088B   23295.81579657  .00000665  00000+0  64296-4 0  9992
2 57049  43.0016 149.1096 0001358 269.0709  90.9977 15.02533044 18761
STARLINK-5845           
1 57050U 23088C   23295.86895814  .00000250  00000+0  33553-4 0  9997
2 57050  43.0010 148.6486 0001158 253.1761 106.8954 15.02534585 18778
STARLINK-5839           
1 57051U 23088D   23295.86785002  .00002873  00000+0  22771-3 0  9997
2 57051  43.0012 148.6394 0001118 278.5355  81.5360 15.02533145 18776
